IRIDIUM 166             
1 43570U 18061B   23317.81530056  .00000457  00000+0  15609-3 0  9998
2 43570  86.3945  92.2603 0002128  98.3445 261.7992 14.34219723277754
IRIDIUM 158             
1 43571U 18061C   23318.13243862  .00000042  00000+0  80373-5 0  9993
2 43571  86.3943  92.1366 0002349  92.7661 267.3803 14.34216963277779
IRIDIUM 165             
1 43572U 18061D   23318.08804508  .00000420  00000+0  14290-3 0  9991
2 43572  86.3945  92.1837 0002416  92.7772 267.3700 14.34214121277784
IRIDIUM 155             
1 43573U 18061E   23318.46859956  .00000398  00000+0  13516-3 0  9995
2 43573  86.3943  91.9401 0001853  97.4363 262.7043 14.34214808277814
IRIDIUM 154             
1 43574U 18061F   23317.61231948  .00000444  00000+0  15151-3 0  9996
2 43574  86.3945  92.3856 0001991  85.1221 275.0202 14.34224594277734
IRIDIUM 163             
1 43575U 18061G   23318.43054293  .00000415  00000+0  14115-3 0  9991
2 43575  86.3945  91.9883 0002051  89.0543 271.0887 14.34216513277825
IRIDIUM 156             
1 43576U 18061H   23317.63771861  .00000072  00000+0  18738-4 0  9995
2 43576  86.3943  92.3259 0002155  98.5239 261.6201 14.34212094277700
IRIDIUM 164             
1 43577U 18061J   23317.82798642  .00000613  00000+0  21198-3 0  9997
2 43577  86.3946  92.2718 0002230  94.6523 265.4927 14.34214569277773
